EUTELSAT 8 WEST B       
1 40875U 15039B   25356.26166300 -.00000044  00000+0  00000+0 0  9994
2 40875   0.0635   2.3398 0004254 269.6982 265.2311  1.00271154 37889
EUTELSAT 9B             
1 41310U 16005A   25356.16294589  .00000084  00000+0  00000+0 0  9996
2 41310   0.0657  72.7349 0004511 203.4472 242.4516  1.00273048 36349
EUTELSAT 65 WEST A      
1 41382U 16014A   25356.46429098 -.00000255  00000+0  00000+0 0  9994
2 41382   0.0510 337.2901 0002176 297.0272 278.9069  1.00273209 35762
EUTELSAT 117 WEST B     
1 41589U 16038B   25356.44899909  .00000010  00000+0  00000+0 0  9997
2 41589   0.0103 138.8686 0000390 145.0277 212.0013  1.00271447 34890
EUTELSAT 172B           
1 42741U 17029B   25356.51127965  .00000016  00000+0  00000+0 0  9999
2 42741   0.0277 116.0899 0000210 302.1342  29.1567  1.00270479 31956
EUTELSAT 7C             
1 44334U 19034B   25356.16294589  .00000070  00000+0  00000+0 0  9995
2 44334   0.0729 180.3118 0003102  75.1349 261.1679  1.00270429  5063
EUTELSAT 5 WEST B       
1 44624U 19067A   25356.26218300 -.00000020  00000+0  00000+0 0  9997
2 44624   0.0656 338.4706 0003036 292.1222 269.8665  1.00271351 22660
EUTELSAT KONNECT        
1 45027U 20005B   25356.33593682  .00000071  00000+0  00000+0 0  9991
2 45027   0.0710  94.4695 0001343 184.6256 300.1874  1.00271114 22563
